{"type": "FeatureCollection", "features": [ {"type": "Feature", "properties": {"norad_id": 40534, "name": "GPS BIIF-9  (PRN 26)", "group": "gps-ops", "lat": 52.87931829196863, "lon": -66.65917697820711, "alt_km": 19978.135018426125, "timestamp": "2025-12-11T05:00:26.567778+00:00", "meta": {"OBJECT_NAME": "GPS BIIF-9  (PRN 26)", "OBJECT_ID": "2015-013A", "EPOCH": "2025-12-10T02:18:43.739712", "MEAN_MOTION": 2.0056274, "ECCENTRICITY": 0.010694, "INCLINATION": 53.1981, "RA_OF_ASC_NODE": 211.9997, "ARG_OF_PERICENTER": 38.4152, "MEAN_ANOMALY": 322.4192, "EPHEMERIS_TYPE": 0, "CLASSIFICATION_TYPE": "U", "NORAD_CAT_ID": 40534, "ELEMENT_SET_NO": 999, "REV_AT_EPOCH": 7803, "BSTAR": 0, "MEAN_MOTION_DOT": 1.5e-07, "MEAN_MOTION_DDOT": 0}, "tle": {"line1": "1 40534U 15013A   25344.09633958  .00000015  00000+0  00000+0 0  9991", "line2": "2 40534  53.1981 211.9997 0106940  38.4152 322.4192  2.00562740 78033"}}, "geometry": {"type": "Point", "coordinates": [-66.65917697820711, 52.87931829196863]}}, {"type": "Feature", "properties": {"norad_id": 40730, "name": "GPS BIIF-10 (PRN 08)", "group": "gps-ops", "lat": -26.858520049468893, "lon": -106.64057814661031, "alt_km": 20038.435898044, "timestamp": "2025-12-11T05:00:26.567789+00:00", "meta": {"OBJECT_NAME": "GPS BIIF-10 (PRN 08)", "OBJECT_ID": "2015-033A", "EPOCH": "2025-12-10T18:08:59.885952", "MEAN_MOTION": 2.00565667, "ECCENTRICITY": 0.01108361, "INCLINATION": 54.1324, "RA_OF_ASC_NODE": 274.8545, "ARG_OF_PERICENTER": 26.7633, "MEAN_ANOMALY": 333.8214, "EPHEMERIS_TYPE": 0, "CLASSIFICATION_TYPE": "U", "NORAD_CAT_ID": 40730, "ELEMENT_SET_NO": 999, "REV_AT_EPOCH": 7621, "BSTAR": 0, "MEAN_MOTION_DOT": -6.3e-07, "MEAN_MOTION_DDOT": 0}, "tle": {"line1": "1 40730U 15033A   25344.75624868 -.00000063  00000+0  00000+0 0  9998", "line2": "2 40730  54.1324 274.8545 0110836  26.7633 333.8214  2.00565667 76213"}}, "geometry": {"type": "Point", "coordinates": [-106.64057814661031, -26.858520049468893]}}, {"type": "Feature", "properties": {"norad_id": 41019, "name": "GPS BIIF-11 (PRN 10)", "group": "gps-ops", "lat": -54.36760915738874, "lon": -27.665710159922977, "alt_km": 20012.281446768004, "timestamp": "2025-12-11T05:00:26.567800+00:00", "meta": {"OBJECT_NAME": "GPS BIIF-11 (PRN 10)", "OBJECT_ID": "2015-062A", "EPOCH": "2025-12-10T07:36:33.024096", "MEAN_MOTION": 2.00567034, "ECCENTRICITY": 0.01107574, "INCLINATION": 56.8304, "RA_OF_ASC_NODE": 38.096, "ARG_OF_PERICENTER": 229.8791, "MEAN_ANOMALY": 129.1964, "EPHEMERIS_TYPE": 0, "CLASSIFICATION_TYPE": "U", "NORAD_CAT_ID": 41019, "ELEMENT_SET_NO": 999, "REV_AT_EPOCH": 7404, "BSTAR": 0, "MEAN_MOTION_DOT": -8.8e-07, "MEAN_MOTION_DDOT": 0}, "tle": {"line1": "1 41019U 15062A   25344.31704889 -.00000088  00000+0  00000+0 0  9992", "line2": "2 41019  56.8304  38.0960 0110757 229.8791 129.1964  2.00567034 74042"}}, "geometry": {"type": "Point", "coordinates": [-27.665710159922977, -54.36760915738874]}}, {"type": "Feature", "properties": {"norad_id": 41328, "name": "GPS BIIF-12 (PRN 32)", "group": "gps-ops", "lat": -34.12892888104604, "lon": -55.22967041826496, "alt_km": 19957.68734335946, "timestamp": "2025-12-11T05:00:26.567811+00:00", "meta": {"OBJECT_NAME": "GPS BIIF-12 (PRN 32)", "OBJECT_ID": "2016-007A", "EPOCH": "2025-12-10T09:35:17.707200", "MEAN_MOTION": 2.005608, "ECCENTRICITY": 0.00920502, "INCLINATION": 55.4049, "RA_OF_ASC_NODE": 96.9499, "ARG_OF_PERICENTER": 243.5192, "MEAN_ANOMALY": 115.5235, "EPHEMERIS_TYPE": 0, "CLASSIFICATION_TYPE": "U", "NORAD_CAT_ID": 41328, "ELEMENT_SET_NO": 999, "REV_AT_EPOCH": 7205, "BSTAR": 0, "MEAN_MOTION_DOT": 3e-08, "MEAN_MOTION_DDOT": 0}, "tle": {"line1": "1 41328U 16007A   25344.39951050  .00000003  00000+0  00000+0 0  9993", "line2": "2 41328  55.4049  96.9499 0092050 243.5192 115.5235  2.00560800 72052"}}, "geometry": {"type": "Point", "coordinates": [-55.22967041826496, -34.12892888104604]}}, {"type": "Feature", "properties": {"norad_id": 43873, "name": "GPS BIII-1  (PRN 04)", "group": "gps-ops", "lat": 46.98562434898498, "lon": -127.66724940087913, "alt_km": 20155.21779648743, "timestamp": "2025-12-11T05:00:26.567822+00:00", "meta": {"OBJECT_NAME": "GPS BIII-1  (PRN 04)", "OBJECT_ID": "2018-109A", "EPOCH": "2025-12-10T13:28:44.931360", "MEAN_MOTION": 2.00553503, "ECCENTRICITY": 0.00372579, "INCLINATION": 55.5664, "RA_OF_ASC_NODE": 99.6325, "ARG_OF_PERICENTER": 194.8351, "MEAN_ANOMALY": 175.9534, "EPHEMERIS_TYPE": 0, "CLASSIFICATION_TYPE": "U", "NORAD_CAT_ID": 43873, "ELEMENT_SET_NO": 999, "REV_AT_EPOCH": 5129, "BSTAR": 0, "MEAN_MOTION_DOT": 8e-08, "MEAN_MOTION_DDOT": 0}, "tle": {"line1": "1 43873U 18109A   25344.56163115  .00000008  00000+0  00000+0 0  9996", "line2": "2 43873  55.5664  99.6325 0037257 194.8351 175.9534  2.00553503 51291"}}, "geometry": {"type": "Point", "coordinates": [-127.66724940087913, 46.98562434898498]}}, {"type": "Feature", "properties": {"norad_id": 44506, "name": "GPS BIII-2  (PRN 18)", "group": "gps-ops", "lat": 12.245683538478474, "lon": -12.881133945902208, "alt_km": 20333.52460922896, "timestamp": "2025-12-11T05:00:26.567833+00:00", "meta": {"OBJECT_NAME": "GPS BIII-2  (PRN 18)", "OBJECT_ID": "2019-056A", "EPOCH": "2025-12-10T10:16:28.629696", "MEAN_MOTION": 2.00566128, "ECCENTRICITY": 0.00577597, "INCLINATION": 55.7221, "RA_OF_ASC_NODE": 338.6437, "ARG_OF_PERICENTER": 198.4903, "MEAN_ANOMALY": 332.7667, "EPHEMERIS_TYPE": 0, "CLASSIFICATION_TYPE": "U", "NORAD_CAT_ID": 44506, "ELEMENT_SET_NO": 999, "REV_AT_EPOCH": 4628, "BSTAR": 0, "MEAN_MOTION_DOT": -8.6e-07, "MEAN_MOTION_DDOT": 0}, "tle": {"line1": "1 44506U 19056A   25344.42810914 -.00000086  00000+0  00000+0 0  9990", "line2": "2 44506  55.7221 338.6437 0057759 198.4903 332.7667  2.00566128 46288"}}, "geometry": {"type": "Point", "coordinates": [-12.881133945902208, 12.245683538478474]}}, {"type": "Feature", "properties": {"norad_id": 45854, "name": "GPS BIII-3  (PRN 23)", "group": "gps-ops", "lat": -32.79288346477833, "lon": 11.068814113752394, "alt_km": 20256.408465299533, "timestamp": "2025-12-11T05:00:26.567844+00:00", "meta": {"OBJECT_NAME": "GPS BIII-3  (PRN 23)", "OBJECT_ID": "2020-041A", "EPOCH": "2025-12-10T06:22:51.669120", "MEAN_MOTION": 2.00561869, "ECCENTRICITY": 0.0060434, "INCLINATION": 56.5455, "RA_OF_ASC_NODE": 36.2815, "ARG_OF_PERICENTER": 203.3429, "MEAN_ANOMALY": 154.8897, "EPHEMERIS_TYPE": 0, "CLASSIFICATION_TYPE": "U", "NORAD_CAT_ID": 45854, "ELEMENT_SET_NO": 999, "REV_AT_EPOCH": 4024, "BSTAR": 0, "MEAN_MOTION_DOT": -9e-07, "MEAN_MOTION_DDOT": 0}, "tle": {"line1": "1 45854U 20041A   25344.26587580 -.00000090  00000+0  00000+0 0  9990", "line2": "2 45854  56.5455  36.2815 0060434 203.3429 154.8897  2.00561869 40242"}}, "geometry": {"type": "Point", "coordinates": [11.068814113752394, -32.79288346477833]}}, {"type": "Feature", "properties": {"norad_id": 46826, "name": "GPS BIII-4  (PRN 14)", "group": "gps-ops", "lat": -49.25396009007856, "lon": 160.9683939870974, "alt_km": 20177.70505859657, "timestamp": "2025-12-11T05:00:26.567855+00:00", "meta": {"OBJECT_NAME": "GPS BIII-4  (PRN 14)", "OBJECT_ID": "2020-078A", "EPOCH": "2025-12-10T01:06:32.862816", "MEAN_MOTION": 2.00566796, "ECCENTRICITY": 0.00646, "INCLINATION": 54.0157, "RA_OF_ASC_NODE": 218.4503, "ARG_OF_PERICENTER": 203.3563, "MEAN_ANOMALY": 327.1751, "EPHEMERIS_TYPE": 0, "CLASSIFICATION_TYPE": "U", "NORAD_CAT_ID": 46826, "ELEMENT_SET_NO": 999, "REV_AT_EPOCH": 3771, "BSTAR": 0, "MEAN_MOTION_DOT": 7e-08, "MEAN_MOTION_DDOT": 0}, "tle": {"line1": "1 46826U 20078A   25344.04621369  .00000007  00000+0  00000+0 0  9997", "line2": "2 46826  54.0157 218.4503 0064600 203.3563 327.1751  2.00566796 37716"}}, "geometry": {"type": "Point", "coordinates": [160.9683939870974, -49.25396009007856]}}, {"type": "Feature", "properties": {"norad_id": 48859, "name": "GPS BIII-5  (PRN 11)", "group": "gps-ops", "lat": 48.07974505666325, "lon": 109.40228586293514, "alt_km": 20208.51418193648, "timestamp": "2025-12-11T05:00:26.567866+00:00", "meta": {"OBJECT_NAME": "GPS BIII-5  (PRN 11)", "OBJECT_ID": "2021-054A", "EPOCH": "2025-12-08T04:14:32.423424", "MEAN_MOTION": 2.00553627, "ECCENTRICITY": 0.0024678, "INCLINATION": 55.2581, "RA_OF_ASC_NODE": 340.1367, "ARG_OF_PERICENTER": 233.3994, "MEAN_ANOMALY": 212.8593, "EPHEMERIS_TYPE": 0, "CLASSIFICATION_TYPE": "U", "NORAD_CAT_ID": 48859, "ELEMENT_SET_NO": 999, "REV_AT_EPOCH": 3292, "BSTAR": 0, "MEAN_MOTION_DOT": -8.6e-07, "MEAN_MOTION_DDOT": 0}, "tle": {"line1": "1 48859U 21054A   25342.17676416 -.00000086  00000+0  00000+0 0  9993", "line2": "2 48859  55.2581 340.1367 0024678 233.3994 212.8593  2.00553627 32922"}}, "geometry": {"type": "Point", "coordinates": [109.40228586293514, 48.07974505666325]}}, {"type": "Feature", "properties": {"norad_id": 55268, "name": "GPS BIII-6  (PRN 28)", "group": "gps-ops", "lat": 18.08421560792539, "lon": -37.27818709220101, "alt_km": 20190.007714946645, "timestamp": "2025-12-11T05:00:26.567877+00:00", "meta": {"OBJECT_NAME": "GPS BIII-6  (PRN 28)", "OBJECT_ID": "2023-009A", "EPOCH": "2025-12-10T05:50:57.225696", "MEAN_MOTION": 2.00555847, "ECCENTRICITY": 0.00036975, "INCLINATION": 55.1051, "RA_OF_ASC_NODE": 155.9432, "ARG_OF_PERICENTER": 357.7706, "MEAN_ANOMALY": 183.2285, "EPHEMERIS_TYPE": 0, "CLASSIFICATION_TYPE": "U", "NORAD_CAT_ID": 55268, "ELEMENT_SET_NO": 999, "REV_AT_EPOCH": 2145, "BSTAR": 0, "MEAN_MOTION_DOT": 7.5e-07, "MEAN_MOTION_DDOT": 0}, "tle": {"line1": "1 55268U 23009A   25344.24371789  .00000075  00000+0  00000+0 0  9999", "line2": "2 55268  55.1051 155.9432 0003697 357.7706 183.2285  2.00555847 21451"}}, "geometry": {"type": "Point", "coordinates": [-37.27818709220101, 18.08421560792539]}}]}